[{"OBJECT_NAME":"CYGFM01","OBJECT_ID":"2016-078D","EPOCH":"2026-03-09T17:27:38.414880","MEAN_MOTION":15.52629701,"ECCENTRICITY":0.00068514,"INCLINATION":34.9401,"RA_OF_ASC_NODE":198.8185,"ARG_OF_PERICENTER":277.8179,"MEAN_ANOMALY":82.1766,"EPHEMERIS_TYPE":0,"CLASSIFICATION_TYPE":"U","NORAD_CAT_ID":41887,"ELEMENT_SET_NO":999,"REV_AT_EPOCH":51321,"BSTAR":0.00043964637,"MEAN_MOTION_DOT":0.00028005,"MEAN_MOTION_DDOT":0},{"OBJECT_NAME":"ICEYE-X25","OBJECT_ID":"2023-084AH","EPOCH":"2026-03-09T21:45:30.911328","MEAN_MOTION":15.51745691,"ECCENTRICITY":0.00040532,"INCLINATION":97.576,"RA_OF_ASC_NODE":209.03,"ARG_OF_PERICENTER":281.7425,"MEAN_ANOMALY":78.3371,"EPHEMERIS_TYPE":0,"CLASSIFICATION_TYPE":"U","NORAD_CAT_ID":56963,"ELEMENT_SET_NO":999,"REV_AT_EPOCH":15253,"BSTAR":0.0009263887,"MEAN_MOTION_DOT":0.00055448,"MEAN_MOTION_DDOT":0}]
